INMARSAT 4-F2 (SOUTHPA*)
1 28899U 05044A   26201.93186036 -.00000263  00000+0  00000+0 0  9996
2 28899   5.1387  43.6864 0002855  63.5158 310.4617  1.00276075 75867
GSAT-8 (GAGAN/PRN 127)  
1 37605U 11022A   26201.91435361  .00000083  00000+0  00000+0 0  9999
2 37605   2.2161  81.4145 0002528 152.0822  89.4270  1.00271289 53553
LUCH 5A (SDCM/PRN 140)  
1 37951U 11074B   26201.86533104 -.00000055  00000+0  00000+0 0  9998
2 37951   8.8372  73.3107 0002824  60.5669 283.3004  1.00274410 53382
SES-5 (EGNOS/PRN 136)   
1 38652U 12036A   26201.83314101  .00000034  00000+0  00000+0 0  9993
2 38652   0.0455 319.1649 0002048 159.4963 124.8448  1.00273131 44797
GSAT-10 (GAGAN/PRN 128) 
1 38779U 12051B   26201.84860429 -.00000165  00000+0  00000+0 0  9996
2 38779   0.0763 263.8454 0007594 191.8380 231.4395  1.00272720 50439
LUCH 5B (SDCM/PRN 125)  
1 38977U 12061A   26201.82898098 -.00000144  00000+0  00000+0 0  9995
2 38977  10.5548  49.5452 0003780 144.3715  26.8115  1.00270597 49941
ASTRA 5B (EGNOS/PRN 123)
1 39617U 14011B   26201.83678102  .00000137  00000+0  00000+0 0  9998
2 39617   0.0651 309.2863 0002125 177.6358 136.3639  1.00271370 45009
LUCH 5V (SDCM/PRN 141)  
1 39727U 14023A   26201.97349127 -.00000272  00000+0  00000+0 0  9991
2 39727   5.2146  69.3944 0002199  79.8155 234.7288  1.00271947 44697
GSAT-15 (GAGAN/PRN 139) 
1 41028U 15065A   26201.88184672 -.00000258  00000+0  00000+0 0  9991
2 41028   0.1030 263.5234 0003563 177.9274 268.1691  1.00271852 39135
EUTELSAT 117 WEST B (W*)
1 41589U 16038B   26201.66647274 -.00000012  00000+0  00000+0 0  9990
2 41589   0.0056 161.4813 0000167   8.5099 251.3833  1.00270889 36996
SES-15 (WAAS/PRN 133)   
1 42709U 17026A   26201.66404606  .00000059  00000+0  00000+0 0  9993
2 42709   0.0279 322.6965 0000499 133.6853 311.9461  1.00267833  7761
QZS-2 (QZSS/PRN 194)    
1 42738U 17028A   26201.46513987 -.00000138  00000+0  00000+0 0  9997
2 42738  39.3796 242.6632 0756849 269.6615  95.8478  1.00275408  7962
QZS-3 (QZSS/PRN 199)    
1 42917U 17048A   26201.92865368 -.00000348  00000+0  00000+0 0  9995
2 42917   0.0592 206.5047 0002783 280.1263 273.4055  1.00269909 32598
QZS-4 (QZSS/PRN 195)    
1 42965U 17062A   26201.71876691 -.00000359  00000+0  00000+0 0  9994
2 42965  40.0883 343.0577 0746991 268.6754  84.8963  1.00289508 32145
BEIDOU-3 G1 (PRN 130)   
1 43683U 18085A   26201.93515372 -.00000110  00000+0  00000+0 0  9993
2 43683   2.9522  96.4613 0008208 356.8634 342.0180  1.00272732 28392
EUTELSAT 5 WEST B (EGN*)
1 44624U 19067A   26201.83114766 -.00000043  00000+0  00000+0 0  9996
2 44624   0.0752 323.5301 0003199 154.9122 114.3565  1.00271669 24776
BEIDOU-3 G2 (PRN 144)   
1 45344U 20017A   26202.00585216 -.00000142  00000+0  00000+0 0  9995
2 45344   2.9317  47.8227 0001958  57.2887 275.7910  1.00272527 23590
BEIDOU-3 G3 (PRN 143)   
1 45807U 20040A   26201.92536034 -.00000355  00000+0  00000+0 0  9995
2 45807   2.5285  67.5065 0002282 312.8170   2.0340  1.00273921 22405
GALAXY 30 (WAAS/PRN 135)
1 46114U 20056C   26201.66482606  .00000036  00000+0  00000+0 0  9995
2 46114   0.0184  58.7653 0002159  56.9350 297.0671  1.00270661 21626
QZS-1R (QZSS/PRN 196)   
1 49336U 21096A   26200.56101544 -.00000322  00000+0  00000+0 0  9995
2 49336  37.5263  79.1015 0755512 272.3091 279.1178  1.00244085 17338
QZS-6 (QZSS/PRN 200)    
1 62876U 25023A   26201.92137365 -.00000233  00000+0  00000+0 0  9995
2 62876   0.0144  46.3423 0001982  68.3803 246.1395  1.00274289  5288
